{
  "norad_id": 46912,
  "name": "KSM1-A",
  "history": [
    {
      "epoch": "2026-03-28T17:08:14.142912Z",
      "apogee_km": 492.9632961867337,
      "perigee_km": 490.76530797014766,
      "latitude_deg": -1.4143248272388997e-05,
      "longitude_deg": 113.86631427149732,
      "height_km": 489.88481651675954,
      "semi_major_axis_km": 6870.001302078441,
      "eccentricity": 0.00015997,
      "inclination_deg": 36.8953,
      "raan_deg": 197.0558,
      "arg_perigee_deg": 351.485,
      "mean_anomaly_deg": 8.5871,
      "mean_motion_rev_day": 15.24640784
    }
  ]
}