{"fetched_at":"2026-03-29T16:36:15Z","count":15609,"tles":[{"name":"KSM1-A","line1":"1 46912U 20081H   26087.71405258  .00012394  00000+0  49354-3 0  9994","line2":"2 46912  36.8953 197.0558 0001599 351.4850   8.5871 15.24640784296886","category":"Other"}]}